[{"OBJECT_NAME":"STARLINK-30842","OBJECT_ID":"2023-177G","EPOCH":"2026-03-09T01:38:07.538784","MEAN_MOTION":15.24412214,"ECCENTRICITY":0.00013538,"INCLINATION":42.9998,"RA_OF_ASC_NODE":339.3436,"ARG_OF_PERICENTER":241.6779,"MEAN_ANOMALY":118.3935,"EPHEMERIS_TYPE":0,"CLASSIFICATION_TYPE":"U","NORAD_CAT_ID":58357,"ELEMENT_SET_NO":999,"REV_AT_EPOCH":12830,"BSTAR":0.00059008247,"MEAN_MOTION_DOT":0.00014531,"MEAN_MOTION_DDOT":0},{"OBJECT_NAME":"OBJECT AE","OBJECT_ID":"2025-313AE","EPOCH":"2026-03-09T22:39:11.546496","MEAN_MOTION":15.21274921,"ECCENTRICITY":0.00138698,"INCLINATION":97.3973,"RA_OF_ASC_NODE":145.1623,"ARG_OF_PERICENTER":1.9486,"MEAN_ANOMALY":358.1801,"EPHEMERIS_TYPE":0,"CLASSIFICATION_TYPE":"U","NORAD_CAT_ID":67276,"ELEMENT_SET_NO":999,"REV_AT_EPOCH":1085,"BSTAR":0.00043089391,"MEAN_MOTION_DOT":9.592e-5,"MEAN_MOTION_DDOT":0}]
